ORBITAL FACTORY 2 (OF-2)
1 45113U 19071C   20260.78475316  .00001344  00000-0  52145-4 0  9996
2 45113  51.6436 282.2596 0013246  28.5277 331.6428 15.33650704 35146
M2 PATHFINDER           
1 45727U 20037E   20261.06565516  .00000448  00000-0  50538-4 0  9993
2 45727  97.7035  79.0511 0012984   0.3964 359.7264 14.91227593 11671
